RAINCUBE                
1 43548U 98067NW  19150.07575507  .00012150  00000-0  14769-3 0  9995
2 43548  51.6370  81.5427 0006558  65.1600 295.0075 15.60995598 50018
HALOSAT                 
1 43549U 98067NX  19150.27077404  .00014052  00000-0  17040-3 0  9999
2 43549  51.6378  80.6038 0006495  67.7347 292.4335 15.60904519 49607
ENDUROSAT ONE           
1 43551U 98067NZ  19150.37470070  .00015679  00000-0  17898-3 0  9996
2 43551  51.6379  78.3023 0006928  75.6697 284.5066 15.62375078 50054
EQUISAT                 
1 43552U 98067PA  19149.38027277  .00011219  00000-0  13564-3 0  9995
2 43552  51.6388  84.4273 0007211  70.5411 289.6361 15.61227715 49846
AEROCUBE 12A            
1 43556U 18046C   19150.17058898  .00000397  00000-0  26703-4 0  9995
2 43556  51.6412 150.2894 0008583   3.8206 356.2838 15.28653571 48578
AEROCUBE 12B            
1 43557U 18046D   19150.37864294  .00000413  00000-0  27361-4 0  9993
2 43557  51.6417 149.4250 0008611   4.4396 355.6659 15.28535958 48559
UITMSAT-1               
1 43589U 98067PD  19150.21651885  .00015767  00000-0  18752-3 0  9993
2 43589  51.6362  80.9686 0006593  80.5186 279.6552 15.61304008 45702
MAYA-1                  
1 43590U 98067PE  19149.25177188  .00012537  00000-0  15047-3 0  9992
2 43590  51.6365  85.7791 0006758  76.5397 283.6349 15.61293451 45482
BHUTAN-1                
1 43591U 98067PF  19150.20322731  .00015973  00000-0  18932-3 0  9999
2 43591  51.6375  80.9005 0006840  81.3553 278.8215 15.61380254 45632
SIRIUSSAT-1             
1 43595U 98067PG  19150.37179336  .00013237  00000-0  16266-3 0  9991
2 43595  51.6366  81.2578 0004385  48.9007 311.2365 15.60625137 44829
SIRIUSSAT-2             
1 43596U 98067PH  19150.40018272  .00013851  00000-0  17094-3 0  9999
2 43596  51.6377  81.4784 0004911  48.1717 311.9695 15.60464494 44828
TANUSHA-3               
1 43597U 98067PJ  19150.35179282  .00017586  00000-0  20409-3 0  9996
2 43597  51.6361  80.3506 0004687  61.6518 298.4948 15.61858846 44831
SURFSAT                 
1 43614U 18070B   19149.81116443  .00001910  00000-0  52039-4 0  9990
2 43614  93.0241 355.4766 0017370  31.1200 329.1078 15.37447894 39352
CP7 (DAVE)              
1 43615U 18070C   19150.07627709  .00001824  00000-0  49800-4 0  9999
2 43615  93.0241 355.5874 0017495  29.6531 330.5710 15.37375224 39391
ELFIN-B                 
1 43616U 18070D   19149.76632999  .00002925  00000-0  78222-4 0  9994
2 43616  93.0210 355.3767 0018482  34.0460 326.1975 15.37954265 39353
ELFIN-A                 
1 43617U 18070E   19149.89083536  .00002787  00000-0  74513-4 0  9991
2 43617  93.0265 355.6278 0017442  31.2147 329.0138 15.37990036 39371
CUBEBEL-1 (BSUSAT-1)    
1 43666U 18083E   19150.29455019  .00000626  00000-0  34580-4 0  9994
2 43666  97.5209 174.9040 0013502 255.3560 160.6184 15.17539412 32347
DEBRISSAT-2             
1 43680U 98067PR  19149.95908924  .00015220  00000-0  17374-3 0  9996
2 43680  51.6385  82.2520 0005142  72.8329 287.3269 15.62412879 53519
CICERO 10               
1 43690U 18088A   19149.74042263  .00000872  00000-0  39023-4 0  9997
2 43690  85.0360 331.6453 0012923 283.0936  76.8861 15.19622111 30322
IRVINE01                
1 43693U 18088D   19149.88219401  .00001758  00000-0  76649-4 0  9994
2 43693  85.0338 331.2008 0016183 265.7098  94.2295 15.21296801 30354
PROXIMA I               
1 43694U 18088E   19150.16965740  .00000907  00000-0  38570-4 0  9998
2 43694  85.0304 330.8547 0017255 254.5744 105.3592 15.21349741 30408
PROXIMA II              
1 43696U 18088G   19149.90577332  .00000765  00000-0  32257-4 0  9994
2 43696  85.0305 331.0300 0017283 255.6004 104.3320 15.21354148 30363
FACSAT-1                
1 43721U 18096C   19150.39470677  .00001486  00000-0  59988-4 0  9992
2 43721  97.4604 220.2906 0019102  42.4882 317.7831 15.26237265 27795
CENTAURI-2              
1 43722U 18096D   19150.18124666  .00001705  00000-0  67998-4 0  9998
2 43722  97.4604 220.1155 0019301  43.8185 316.4581 15.26443376 27759
INNOSAT-2               
1 43738U 18096V   19150.40134110  .00002760  00000-0  10114-3 0  9994
2 43738  97.4609 220.8930 0025860  53.3557 307.0055 15.28569516 27833
SIRION PATHFINDER-2     
1 43759U 18099B   19150.37740374 -.00000241  00000-0 -16663-4 0  9991
2 43759  97.7457 222.5977 0015036  30.5503 329.6591 14.95120487 26536
CORVUS-BC 4             
1 43767U 18099K   19150.17544655 -.00000199  00000-0 -13118-4 0  9996
2 43767  97.7443 222.2136 0012632  35.2432 324.9621 14.94564189 26505
SHIELDS 1               
1 43850U 18104B   19150.23946032  .00000042  00000-0  00000+0 0  9994
2 43850  85.0287  69.3073 0017189  48.0546 312.2180 15.21062782 25067
STF-1                   
1 43852U 18104D   19149.77788852  .00000041  00000-0  00000+0 0  9996
2 43852  85.0341  69.8133 0017837  60.1285 300.1764 15.20560719 24983
ZACUBE-2                
1 43907U 18111AH  19150.37448965  .00000516  00000-0  23917-4 0  9995
2 43907  97.2919  56.1401 0023346  61.6816 298.6772 15.24165585 23508
LUME 1                  
1 43908U 18111AJ  19149.77832623  .00000869  00000-0  38206-4 0  9994
2 43908  97.2918  55.5711 0023349  63.7752 296.5883 15.24290163 23411
AOBA VELOX-IV           
1 43940U 19003J   19150.23519794  .00001317  00000-0  57240-4 0  9993
2 43940  97.2775 208.7216 0025769 137.5982 264.8255 15.23725555 20126
CATSAT-2                
1 44029U 98067PV  19150.08981453  .00009065  00000-0  13428-3 0  9994
2 44029  51.6393  89.1538 0005950  74.0621 286.1026 15.56059813 18525
DELPHINI                
1 44030U 98067PW  19149.82912143  .00009898  00000-0  14527-3 0  9991
2 44030  51.6382  90.4053 0005710  72.9285 287.2331 15.56190908 18453
UNITE                   
1 44031U 98067PX  19149.85478556  .00006128  00000-0  95189-4 0  9997
2 44031  51.6388  90.5781 0004241  70.7259 289.4191 15.55433902 18455
TECHEDSAT 8             
1 44032U 98067PY  19150.05412167  .00022562  00000-0  29181-3 0  9996
2 44032  51.6385  88.1606 0005081  71.0652 289.0891 15.58820349 18480
CATSAT-1                
1 44033U 98067PZ  19150.15399084  .00008520  00000-0  12662-3 0  9994
2 44033  51.6393  88.8326 0005718  74.6057 285.5565 15.56061214 18442
